STARLINK-1866
1 27152C 20088AG  21325.10908039  .00002873  00000-0  19255-3 0  3258
2 27152  53.0517 147.7508 0001679  82.5749 298.0975 15.06378592    19
